{
"type": "FeatureCollection",
"name": "ocurrencias_tambopata_fauna_20260817",
"crs": { "type": "name", "properties": { "name": "urn:ogc:def:crs:OGC:1.3:CRS84" } },
"features": [
{ "type": "Feature", "properties": { "scientificName": "Melanosuchus niger (Spix, 1825)", "decimalLatitude": -12.610645, "decimalLongitude": -69.042419, "eventDate": "2026-01-02T09:12:15", "taxonRank": "SPECIES", "kingdom": "Animalia", "phylum": "Chordata", "class": "Crocodylia", "order": null, "family": "Alligatoridae", "genus": "Melanosuchus", "species": "Melanosuchus niger", "recordedBy": "abriberman", "coordinateUncertaintyInMeters": null, "source": "GBIF", "district": "TAMBOPATA" }, "geometry": { "type": "Point", "coordinates": [ -69.042419, -12.610645 ] } },
{ "type": "Feature", "properties": { "scientificName": "Anhinga anhinga (Linnaeus, 1766)", "decimalLatitude": -12.608778, "decimalLongitude": -69.043854, "eventDate": "2026-01-02T08:38:03", "taxonRank": "SPECIES", "kingdom": "Animalia", "phylum": "Chordata", "class": "Aves", "order": "Suliformes", "family": "Anhingidae", "genus": "Anhinga", "species": "Anhinga anhinga", "recordedBy": "abriberman", "coordinateUncertaintyInMeters": null, "source": "GBIF", "district": "TAMBOPATA" }, "geometry": { "type": "Point", "coordinates": [ -69.043854, -12.608778 ] } },
{ "type": "Feature", "properties": { "scientificName": "Boa constrictor Linnaeus, 1758", "decimalLatitude": -12.608573, "decimalLongitude": -69.190035, "eventDate": "2026-01-01T21:31:55", "taxonRank": "SPECIES", "kingdom": "Animalia", "phylum": "Chordata", "class": "Squamata", "order": null, "family": "Boidae", "genus": "Boa", "species": "Boa constrictor", "recordedBy": "Suze LdA", "coordinateUncertaintyInMeters": 40.0, "source": "GBIF", "district": "TAMBOPATA" }, "geometry": { "type": "Point", "coordinates": [ -69.190035, -12.608573 ] } },
{ "type": "Feature", "properties": { "scientificName": "Monasa nigrifrons (von Spix, 1824)", "decimalLatitude": -12.607547, "decimalLongitude": -69.080742, "eventDate": "2026-01-04T12:02:10", "taxonRank": "SPECIES", "kingdom": "Animalia", "phylum": "Chordata", "class": "Aves", "order": "Piciformes", "family": "Bucconidae", "genus": "Monasa", "species": "Monasa nigrifrons", "recordedBy": "Simon RB", "coordinateUncertaintyInMeters": null, "source": "GBIF", "district": "TAMBOPATA" }, "geometry": { "type": "Point", "coordinates": [ -69.080742, -12.607547 ] } },
{ "type": "Feature", "properties": { "scientificName": "Anartia amathea (Linnaeus, 1758)", "decimalLatitude": -12.610253, "decimalLongitude": -69.04895, "eventDate": "2026-01-02T07:56:19", "taxonRank": "SPECIES", "kingdom": "Animalia", "phylum": "Arthropoda", "class": "Insecta", "order": "Lepidoptera", "family": "Nymphalidae", "genus": "Anartia", "species": "Anartia amathea", "recordedBy": "abriberman", "coordinateUncertaintyInMeters": null, "source": "GBIF", "district": "TAMBOPATA" }, "geometry": { "type": "Point", "coordinates": [ -69.04895, -12.610253 ] } },
{ "type": "Feature", "properties": { "scientificName": "Ara ararauna (Linnaeus, 1758)", "decimalLatitude": -12.954651, "decimalLongitude": -69.488091, "eventDate": "2026-01-11T23:36:42", "taxonRank": "SPECIES", "kingdom": "Animalia", "phylum": "Chordata", "class": "Aves", "order": "Psittaciformes", "family": "Psittacidae", "genus": "Ara", "species": "Ara ararauna", "recordedBy": "Truman Gilliam", "coordinateUncertaintyInMeters": 31057.0, "source": "GBIF", "district": "TAMBOPATA" }, "geometry": { "type": "Point", "coordinates": [ -69.488091, -12.954651 ] } },
{ "type": "Feature", "properties": { "scientificName": "Ameerega trivittata (Spix, 1824)", "decimalLatitude": -12.185146, "decimalLongitude": -69.549022, "eventDate": "2026-01-18", "taxonRank": "SPECIES", "kingdom": "Animalia", "phylum": "Chordata", "class": "Amphibia", "order": "Anura", "family": "Dendrobatidae", "genus": "Ameerega", "species": "Ameerega trivittata", "recordedBy": "Alonso Huyhua Cornejo", "coordinateUncertaintyInMeters": 43095.0, "source": "GBIF", "district": "TAMBOPATA" }, "geometry": { "type": "Point", "coordinates": [ -69.549022, -12.185146 ] } },
{ "type": "Feature", "properties": { "scientificName": "Colubridae", "decimalLatitude": -12.138547, "decimalLongitude": -69.414865, "eventDate": "2026-01-18", "taxonRank": "FAMILY", "kingdom": "Animalia", "phylum": "Chordata", "class": "Squamata", "order": null, "family": "Colubridae", "genus": null, "species": null, "recordedBy": "Alonso Huyhua Cornejo", "coordinateUncertaintyInMeters": 32497.0, "source": "GBIF", "district": "TAMBOPATA" }, "geometry": { "type": "Point", "coordinates": [ -69.414865, -12.138547 ] } },
{ "type": "Feature", "properties": { "scientificName": "Corallus hortulana (Linnaeus, 1758)", "decimalLatitude": -12.200629, "decimalLongitude": -69.499308, "eventDate": "2026-01-18", "taxonRank": "SPECIES", "kingdom": "Animalia", "phylum": "Chordata", "class": "Squamata", "order": null, "family": "Boidae", "genus": "Corallus", "species": "Corallus hortulana", "recordedBy": "Alonso Huyhua Cornejo", "coordinateUncertaintyInMeters": 40763.0, "source": "GBIF", "district": "TAMBOPATA" }, "geometry": { "type": "Point", "coordinates": [ -69.499308, -12.200629 ] } },
{ "type": "Feature", "properties": { "scientificName": "Oxyrhopus occipitalis (Wied-Neuwied, 1824)", "decimalLatitude": -12.05953, "decimalLongitude": -69.526739, "eventDate": "2026-01-09T18:39:58", "taxonRank": "SPECIES", "kingdom": "Animalia", "phylum": "Chordata", "class": "Squamata", "order": null, "family": "Colubridae", "genus": "Oxyrhopus", "species": "Oxyrhopus occipitalis", "recordedBy": "Raul Achahuanco Huallpa", "coordinateUncertaintyInMeters": null, "source": "GBIF", "district": "TAMBOPATA" }, "geometry": { "type": "Point", "coordinates": [ -69.526739, -12.05953 ] } },
{ "type": "Feature", "properties": { "scientificName": "Podocnemis unifilis Troschel, 1848", "decimalLatitude": -12.146766, "decimalLongitude": -69.58753, "eventDate": "2026-01-23T16:00:48", "taxonRank": "SPECIES", "kingdom": "Animalia", "phylum": "Chordata", "class": "Testudines", "order": null, "family": "Podocnemididae", "genus": "Podocnemis", "species": "Podocnemis unifilis", "recordedBy": "jeffreyps", "coordinateUncertaintyInMeters": 31104.0, "source": "GBIF", "district": "TAMBOPATA" }, "geometry": { "type": "Point", "coordinates": [ -69.58753, -12.146766 ] } },
{ "type": "Feature", "properties": { "scientificName": "Hoploxypterus cayanus (Latham, 1790)", "decimalLatitude": -12.052952, "decimalLongitude": -69.527604, "eventDate": "2026-01-30T16:32:53", "taxonRank": "SPECIES", "kingdom": "Animalia", "phylum": "Chordata", "class": "Aves", "order": "Charadriiformes", "family": "Charadriidae", "genus": "Hoploxypterus", "species": "Hoploxypterus cayanus", "recordedBy": "jeffreyps", "coordinateUncertaintyInMeters": 155.0, "source": "GBIF", "district": "TAMBOPATA" }, "geometry": { "type": "Point", "coordinates": [ -69.527604, -12.052952 ] } },
{ "type": "Feature", "properties": { "scientificName": "Ameerega hahneli (Boulenger, 1884)", "decimalLatitude": -12.050119, "decimalLongitude": -69.531822, "eventDate": "2026-01-22T13:39:15", "taxonRank": "SPECIES", "kingdom": "Animalia", "phylum": "Chordata", "class": "Amphibia", "order": "Anura", "family": "Dendrobatidae", "genus": "Ameerega", "species": "Ameerega hahneli", "recordedBy": "mialoren24", "coordinateUncertaintyInMeters": 10.0, "source": "GBIF", "district": "TAMBOPATA" }, "geometry": { "type": "Point", "coordinates": [ -69.531822, -12.050119 ] } },
{ "type": "Feature", "properties": { "scientificName": "Pyrrhopygopsis socrates (Ménétriés, 1885)", "decimalLatitude": -12.049895, "decimalLongitude": -69.532048, "eventDate": "2026-01-21T13:35:19", "taxonRank": "SPECIES", "kingdom": "Animalia", "phylum": "Arthropoda", "class": "Insecta", "order": "Lepidoptera", "family": "Hesperiidae", "genus": "Pyrrhopygopsis", "species": "Pyrrhopygopsis socrates", "recordedBy": "jeffreyps", "coordinateUncertaintyInMeters": 2.0, "source": "GBIF", "district": "TAMBOPATA" }, "geometry": { "type": "Point", "coordinates": [ -69.532048, -12.049895 ] } },
{ "type": "Feature", "properties": { "scientificName": "Calydna cea Hewitson, 1859", "decimalLatitude": -12.049689, "decimalLongitude": -69.53127, "eventDate": "2026-01-25T14:04:18", "taxonRank": "SPECIES", "kingdom": "Animalia", "phylum": null, "class": null, "order": null, "family": null, "genus": "Calydna", "species": "Calydna cea", "recordedBy": "jeffreyps", "coordinateUncertaintyInMeters": 408.0, "source": "GBIF", "district": "TAMBOPATA" }, "geometry": { "type": "Point", "coordinates": [ -69.53127, -12.049689 ] } },
{ "type": "Feature", "properties": { "scientificName": "Desmia bajulalis Guenée, 1854", "decimalLatitude": -12.049968, "decimalLongitude": -69.531869, "eventDate": "2026-01-24T19:18:14", "taxonRank": "SPECIES", "kingdom": "Animalia", "phylum": "Arthropoda", "class": "Insecta", "order": "Lepidoptera", "family": "Crambidae", "genus": "Desmia", "species": "Desmia bajulalis", "recordedBy": "jeffreyps", "coordinateUncertaintyInMeters": 2.0, "source": "GBIF", "district": "TAMBOPATA" }, "geometry": { "type": "Point", "coordinates": [ -69.531869, -12.049968 ] } },
{ "type": "Feature", "properties": { "scientificName": "Morpho helenor Cramer, 1782", "decimalLatitude": -12.0499, "decimalLongitude": -69.531799, "eventDate": "2026-01-21T07:37:59", "taxonRank": "SPECIES", "kingdom": "Animalia", "phylum": "Arthropoda", "class": "Insecta", "order": "Lepidoptera", "family": "Nymphalidae", "genus": "Morpho", "species": "Morpho helenor", "recordedBy": "jeffreyps", "coordinateUncertaintyInMeters": 159.0, "source": "GBIF", "district": "TAMBOPATA" }, "geometry": { "type": "Point", "coordinates": [ -69.531799, -12.0499 ] } },
{ "type": "Feature", "properties": { "scientificName": "Anasa jucunda Breddin, 1904", "decimalLatitude": -12.053067, "decimalLongitude": -69.535972, "eventDate": "2026-01-31T11:45:50", "taxonRank": "SPECIES", "kingdom": "Animalia", "phylum": "Arthropoda", "class": "Insecta", "order": "Hemiptera", "family": "Coreidae", "genus": "Anasa", "species": "Anasa jucunda", "recordedBy": "jeffreyps", "coordinateUncertaintyInMeters": 5.0, "source": "GBIF", "district": "TAMBOPATA" }, "geometry": { "type": "Point", "coordinates": [ -69.535972, -12.053067 ] } },
{ "type": "Feature", "properties": { "scientificName": "Actitis macularius (Linnaeus, 1766)", "decimalLatitude": -12.050132, "decimalLongitude": -69.529729, "eventDate": "2026-01-23T16:05:39", "taxonRank": "SPECIES", "kingdom": "Animalia", "phylum": "Chordata", "class": "Aves", "order": "Charadriiformes", "family": "Scolopacidae", "genus": "Actitis", "species": "Actitis macularius", "recordedBy": "jeffreyps", "coordinateUncertaintyInMeters": 408.0, "source": "GBIF", "district": "TAMBOPATA" }, "geometry": { "type": "Point", "coordinates": [ -69.529729, -12.050132 ] } },
{ "type": "Feature", "properties": { "scientificName": "Oxysternon conspicillatum (Weber, 1801)", "decimalLatitude": -12.050021, "decimalLongitude": -69.531871, "eventDate": "2026-01-21T13:35:19", "taxonRank": "SPECIES", "kingdom": "Animalia", "phylum": "Arthropoda", "class": "Insecta", "order": "Coleoptera", "family": "Scarabaeidae", "genus": "Oxysternon", "species": "Oxysternon conspicillatum", "recordedBy": "jeffreyps", "coordinateUncertaintyInMeters": 7.0, "source": "GBIF", "district": "TAMBOPATA" }, "geometry": { "type": "Point", "coordinates": [ -69.531871, -12.050021 ] } },
{ "type": "Feature", "properties": { "scientificName": "Opisthocomus hoazin (Statius Muller, 1776)", "decimalLatitude": -12.57623, "decimalLongitude": -69.058322, "eventDate": "2026-01-05T08:16:30", "taxonRank": "SPECIES", "kingdom": "Animalia", "phylum": "Chordata", "class": "Aves", "order": "Opisthocomiformes", "family": "Opisthocomidae", "genus": "Opisthocomus", "species": "Opisthocomus hoazin", "recordedBy": "Simon RB", "coordinateUncertaintyInMeters": 1852.0, "source": "GBIF", "district": "TAMBOPATA" }, "geometry": { "type": "Point", "coordinates": [ -69.058322, -12.57623 ] } },
{ "type": "Feature", "properties": { "scientificName": "Sapajus apella (Linnaeus, 1758)", "decimalLatitude": -12.039408, "decimalLongitude": -69.540609, "eventDate": "2026-01-30T06:25:01", "taxonRank": "SPECIES", "kingdom": "Animalia", "phylum": "Chordata", "class": "Mammalia", "order": "Primates", "family": "Cebidae", "genus": "Sapajus", "species": "Sapajus apella", "recordedBy": "jeffreyps", "coordinateUncertaintyInMeters": 408.0, "source": "GBIF", "district": "TAMBOPATA" }, "geometry": { "type": "Point", "coordinates": [ -69.540609, -12.039408 ] } },
{ "type": "Feature", "properties": { "scientificName": "Pristimantis fenestratus (Steindachner, 1864)", "decimalLatitude": -12.050417, "decimalLongitude": -69.531913, "eventDate": "2026-01-28T20:48:06", "taxonRank": "SPECIES", "kingdom": "Animalia", "phylum": "Chordata", "class": "Amphibia", "order": "Anura", "family": "Craugastoridae", "genus": "Pristimantis", "species": "Pristimantis fenestratus", "recordedBy": "mialoren24", "coordinateUncertaintyInMeters": 9.0, "source": "GBIF", "district": "TAMBOPATA" }, "geometry": { "type": "Point", "coordinates": [ -69.531913, -12.050417 ] } },
{ "type": "Feature", "properties": { "scientificName": "Erythrolamprus aesculapii (Linnaeus, 1758)", "decimalLatitude": -12.051429, "decimalLongitude": -69.531781, "eventDate": "2026-01-30T07:12:10", "taxonRank": "SPECIES", "kingdom": "Animalia", "phylum": "Chordata", "class": "Squamata", "order": null, "family": "Colubridae", "genus": "Erythrolamprus", "species": "Erythrolamprus aesculapii", "recordedBy": "mialoren24", "coordinateUncertaintyInMeters": 122.0, "source": "GBIF", "district": "TAMBOPATA" }, "geometry": { "type": "Point", "coordinates": [ -69.531781, -12.051429 ] } },
{ "type": "Feature", "properties": { "scientificName": "Vila emilia Cramer, 1779", "decimalLatitude": -12.049364, "decimalLongitude": -69.53046, "eventDate": "2026-01-25T12:47:20", "taxonRank": "SPECIES", "kingdom": "Animalia", "phylum": "Arthropoda", "class": "Insecta", "order": "Lepidoptera", "family": "Nymphalidae", "genus": "Vila", "species": "Vila emilia", "recordedBy": "jeffreyps", "coordinateUncertaintyInMeters": 171.0, "source": "GBIF", "district": "TAMBOPATA" }, "geometry": { "type": "Point", "coordinates": [ -69.53046, -12.049364 ] } },
{ "type": "Feature", "properties": { "scientificName": "Gonatodes humeralis (Guichenot, 1855)", "decimalLatitude": -12.049678, "decimalLongitude": -69.531906, "eventDate": "2026-01-25T15:39:20", "taxonRank": "SPECIES", "kingdom": "Animalia", "phylum": "Chordata", "class": "Squamata", "order": null, "family": "Sphaerodactylidae", "genus": "Gonatodes", "species": "Gonatodes humeralis", "recordedBy": "jeffreyps", "coordinateUncertaintyInMeters": 134.0, "source": "GBIF", "district": "TAMBOPATA" }, "geometry": { "type": "Point", "coordinates": [ -69.531906, -12.049678 ] } },
{ "type": "Feature", "properties": { "scientificName": "Avicularia avicularia (Linnaeus, 1758)", "decimalLatitude": -12.049994, "decimalLongitude": -69.531967, "eventDate": "2026-01-30T08:13:39", "taxonRank": "SPECIES", "kingdom": "Animalia", "phylum": "Arthropoda", "class": "Arachnida", "order": "Araneae", "family": "Theraphosidae", "genus": "Avicularia", "species": "Avicularia avicularia", "recordedBy": "jeffreyps", "coordinateUncertaintyInMeters": 82.0, "source": "GBIF", "district": "TAMBOPATA" }, "geometry": { "type": "Point", "coordinates": [ -69.531967, -12.049994 ] } },
{ "type": "Feature", "properties": { "scientificName": "Ameerega hahneli (Boulenger, 1884)", "decimalLatitude": -12.049767, "decimalLongitude": -69.53205, "eventDate": "2026-01-22T17:11:22", "taxonRank": "SPECIES", "kingdom": "Animalia", "phylum": "Chordata", "class": "Amphibia", "order": "Anura", "family": "Dendrobatidae", "genus": "Ameerega", "species": "Ameerega hahneli", "recordedBy": "jeffreyps", "coordinateUncertaintyInMeters": 187.0, "source": "GBIF", "district": "TAMBOPATA" }, "geometry": { "type": "Point", "coordinates": [ -69.53205, -12.049767 ] } },
{ "type": "Feature", "properties": { "scientificName": "Periplaneta americana (Linnaeus, 1758)", "decimalLatitude": -12.050465, "decimalLongitude": -69.531998, "eventDate": "2026-01-21T14:53:55", "taxonRank": "SPECIES", "kingdom": "Animalia", "phylum": "Arthropoda", "class": "Insecta", "order": "Blattodea", "family": "Blattidae", "genus": "Periplaneta", "species": "Periplaneta americana", "recordedBy": "jeffreyps", "coordinateUncertaintyInMeters": 170.0, "source": "GBIF", "district": "TAMBOPATA" }, "geometry": { "type": "Point", "coordinates": [ -69.531998, -12.050465 ] } },
{ "type": "Feature", "properties": { "scientificName": "Turdus hauxwelli Lawrence, 1869", "decimalLatitude": -12.045798, "decimalLongitude": -69.535586, "eventDate": "2026-01-30T06:50:52", "taxonRank": "SPECIES", "kingdom": "Animalia", "phylum": "Chordata", "class": "Aves", "order": "Passeriformes", "family": "Turdidae", "genus": "Turdus", "species": "Turdus hauxwelli", "recordedBy": "jeffreyps", "coordinateUncertaintyInMeters": 408.0, "source": "GBIF", "district": "TAMBOPATA" }, "geometry": { "type": "Point", "coordinates": [ -69.535586, -12.045798 ] } },
{ "type": "Feature", "properties": { "scientificName": "Ochthornis littoralis (Pelzeln, 1868)", "decimalLatitude": -12.071623, "decimalLongitude": -69.490462, "eventDate": "2026-01-30T16:16:20", "taxonRank": "SPECIES", "kingdom": "Animalia", "phylum": "Chordata", "class": "Aves", "order": "Passeriformes", "family": "Tyrannidae", "genus": "Ochthornis", "species": "Ochthornis littoralis", "recordedBy": "jeffreyps", "coordinateUncertaintyInMeters": 408.0, "source": "GBIF", "district": "TAMBOPATA" }, "geometry": { "type": "Point", "coordinates": [ -69.490462, -12.071623 ] } },
{ "type": "Feature", "properties": { "scientificName": "Erythrolamprus aesculapii (Linnaeus, 1758)", "decimalLatitude": -12.047406, "decimalLongitude": -69.535369, "eventDate": "2026-01-30T07:12:10", "taxonRank": "SPECIES", "kingdom": "Animalia", "phylum": "Chordata", "class": "Squamata", "order": null, "family": "Colubridae", "genus": "Erythrolamprus", "species": "Erythrolamprus aesculapii", "recordedBy": "jeffreyps", "coordinateUncertaintyInMeters": 408.0, "source": "GBIF", "district": "TAMBOPATA" }, "geometry": { "type": "Point", "coordinates": [ -69.535369, -12.047406 ] } },
{ "type": "Feature", "properties": { "scientificName": "Herpetotheres cachinnans (Linnaeus, 1758)", "decimalLatitude": -12.072374, "decimalLongitude": -69.489677, "eventDate": "2026-01-30T16:03:36", "taxonRank": "SPECIES", "kingdom": "Animalia", "phylum": "Chordata", "class": "Aves", "order": "Falconiformes", "family": "Falconidae", "genus": "Herpetotheres", "species": "Herpetotheres cachinnans", "recordedBy": "jeffreyps", "coordinateUncertaintyInMeters": 408.0, "source": "GBIF", "district": "TAMBOPATA" }, "geometry": { "type": "Point", "coordinates": [ -69.489677, -12.072374 ] } },
{ "type": "Feature", "properties": { "scientificName": "Cochlearius cochlearius (Linnaeus, 1766)", "decimalLatitude": -12.051489, "decimalLongitude": -69.534737, "eventDate": "2026-01-26T11:54:55", "taxonRank": "SPECIES", "kingdom": "Animalia", "phylum": "Chordata", "class": "Aves", "order": "Pelecaniformes", "family": "Ardeidae", "genus": "Cochlearius", "species": "Cochlearius cochlearius", "recordedBy": "mialoren24", "coordinateUncertaintyInMeters": 4.0, "source": "GBIF", "district": "TAMBOPATA" }, "geometry": { "type": "Point", "coordinates": [ -69.534737, -12.051489 ] } },
{ "type": "Feature", "properties": { "scientificName": "Leptotila rufaxilla (Richard & Bernard, 1792)", "decimalLatitude": -12.595033, "decimalLongitude": -69.177812, "eventDate": "2026-01-31T11:56:06", "taxonRank": "SPECIES", "kingdom": "Animalia", "phylum": "Chordata", "class": "Aves", "order": "Columbiformes", "family": "Columbidae", "genus": "Leptotila", "species": "Leptotila rufaxilla", "recordedBy": "Rajan Rao", "coordinateUncertaintyInMeters": 13.0, "source": "GBIF", "district": "TAMBOPATA" }, "geometry": { "type": "Point", "coordinates": [ -69.177812, -12.595033 ] } },
{ "type": "Feature", "properties": { "scientificName": "Ardea alba Linnaeus, 1758", "decimalLatitude": -12.065509, "decimalLongitude": -69.52119, "eventDate": "2026-01-30T16:21:07", "taxonRank": "SPECIES", "kingdom": "Animalia", "phylum": "Chordata", "class": "Aves", "order": "Pelecaniformes", "family": "Ardeidae", "genus": "Ardea", "species": "Ardea alba", "recordedBy": "jeffreyps", "coordinateUncertaintyInMeters": 408.0, "source": "GBIF", "district": "TAMBOPATA" }, "geometry": { "type": "Point", "coordinates": [ -69.52119, -12.065509 ] } },
{ "type": "Feature", "properties": { "scientificName": "Atticora fasciata (Gmelin, 1789)", "decimalLatitude": -12.067541, "decimalLongitude": -69.511958, "eventDate": "2026-01-23T15:57:33", "taxonRank": "SPECIES", "kingdom": "Animalia", "phylum": "Chordata", "class": "Aves", "order": "Passeriformes", "family": "Hirundinidae", "genus": "Atticora", "species": "Atticora fasciata", "recordedBy": "jeffreyps", "coordinateUncertaintyInMeters": 408.0, "source": "GBIF", "district": "TAMBOPATA" }, "geometry": { "type": "Point", "coordinates": [ -69.511958, -12.067541 ] } },
{ "type": "Feature", "properties": { "scientificName": "Zelurus festivus (Stål, 1859)", "decimalLatitude": -12.053225, "decimalLongitude": -69.535737, "eventDate": "2026-01-30T11:17:02", "taxonRank": "SPECIES", "kingdom": "Animalia", "phylum": "Arthropoda", "class": "Insecta", "order": "Hemiptera", "family": "Reduviidae", "genus": "Zelurus", "species": "Zelurus festivus", "recordedBy": "jeffreyps", "coordinateUncertaintyInMeters": 17.0, "source": "GBIF", "district": "TAMBOPATA" }, "geometry": { "type": "Point", "coordinates": [ -69.535737, -12.053225 ] } },
{ "type": "Feature", "properties": { "scientificName": "Opisthocomus hoazin (Statius Muller, 1776)", "decimalLatitude": -12.095605, "decimalLongitude": -69.474437, "eventDate": "2026-01-30T16:27:41", "taxonRank": "SPECIES", "kingdom": "Animalia", "phylum": "Chordata", "class": "Aves", "order": "Opisthocomiformes", "family": "Opisthocomidae", "genus": "Opisthocomus", "species": "Opisthocomus hoazin", "recordedBy": "jeffreyps", "coordinateUncertaintyInMeters": 408.0, "source": "GBIF", "district": "TAMBOPATA" }, "geometry": { "type": "Point", "coordinates": [ -69.474437, -12.095605 ] } },
{ "type": "Feature", "properties": { "scientificName": "Ameerega trivittata (Spix, 1824)", "decimalLatitude": -12.052339, "decimalLongitude": -69.53118, "eventDate": "2026-01-30T09:01:19", "taxonRank": "SPECIES", "kingdom": "Animalia", "phylum": "Chordata", "class": "Amphibia", "order": "Anura", "family": "Dendrobatidae", "genus": "Ameerega", "species": "Ameerega trivittata", "recordedBy": "jeffreyps", "coordinateUncertaintyInMeters": 13.0, "source": "GBIF", "district": "TAMBOPATA" }, "geometry": { "type": "Point", "coordinates": [ -69.53118, -12.052339 ] } },
{ "type": "Feature", "properties": { "scientificName": "Ateles chamek (Humboldt, 1812)", "decimalLatitude": -12.046134, "decimalLongitude": -69.572277, "eventDate": "2026-01-30T07:05:40", "taxonRank": "SPECIES", "kingdom": "Animalia", "phylum": "Chordata", "class": "Mammalia", "order": "Primates", "family": "Atelidae", "genus": "Ateles", "species": "Ateles chamek", "recordedBy": "jeffreyps", "coordinateUncertaintyInMeters": 31104.0, "source": "GBIF", "district": "TAMBOPATA" }, "geometry": { "type": "Point", "coordinates": [ -69.572277, -12.046134 ] } },
{ "type": "Feature", "properties": { "scientificName": "Monasa nigrifrons (von Spix, 1824)", "decimalLatitude": -12.049671, "decimalLongitude": -69.532058, "eventDate": "2026-01-22T17:28:04", "taxonRank": "SPECIES", "kingdom": "Animalia", "phylum": "Chordata", "class": "Aves", "order": "Piciformes", "family": "Bucconidae", "genus": "Monasa", "species": "Monasa nigrifrons", "recordedBy": "jeffreyps", "coordinateUncertaintyInMeters": 48.0, "source": "GBIF", "district": "TAMBOPATA" }, "geometry": { "type": "Point", "coordinates": [ -69.532058, -12.049671 ] } },
{ "type": "Feature", "properties": { "scientificName": "Hamptophryne boliviana (Parker, 1927)", "decimalLatitude": -12.0504, "decimalLongitude": -69.531953, "eventDate": "2026-01-25T20:54:45", "taxonRank": "SPECIES", "kingdom": "Animalia", "phylum": "Chordata", "class": "Amphibia", "order": "Anura", "family": "Microhylidae", "genus": "Hamptophryne", "species": "Hamptophryne boliviana", "recordedBy": "mialoren24", "coordinateUncertaintyInMeters": 13.0, "source": "GBIF", "district": "TAMBOPATA" }, "geometry": { "type": "Point", "coordinates": [ -69.531953, -12.0504 ] } },
{ "type": "Feature", "properties": { "scientificName": "Stelgidopteryx ruficollis (Vieillot, 1817)", "decimalLatitude": -12.78764, "decimalLongitude": -69.333679, "eventDate": "2026-01-07T13:34:36", "taxonRank": "SPECIES", "kingdom": "Animalia", "phylum": "Chordata", "class": "Aves", "order": "Passeriformes", "family": "Hirundinidae", "genus": "Stelgidopteryx", "species": "Stelgidopteryx ruficollis", "recordedBy": "sanna_birding", "coordinateUncertaintyInMeters": 37.0, "source": "GBIF", "district": "TAMBOPATA" }, "geometry": { "type": "Point", "coordinates": [ -69.333679, -12.78764 ] } },
{ "type": "Feature", "properties": { "scientificName": "Tachycineta albiventer (Boddaert, 1783)", "decimalLatitude": -12.787599, "decimalLongitude": -69.333423, "eventDate": "2026-01-07T13:34:15", "taxonRank": "SPECIES", "kingdom": "Animalia", "phylum": "Chordata", "class": "Aves", "order": "Passeriformes", "family": "Hirundinidae", "genus": "Tachycineta", "species": "Tachycineta albiventer", "recordedBy": "sanna_birding", "coordinateUncertaintyInMeters": 94.0, "source": "GBIF", "district": "TAMBOPATA" }, "geometry": { "type": "Point", "coordinates": [ -69.333423, -12.787599 ] } },
{ "type": "Feature", "properties": { "scientificName": "Edalorhina perezi Jiménez de la Espada, 1870", "decimalLatitude": -12.052897, "decimalLongitude": -69.531647, "eventDate": "2026-01-31T09:45:11", "taxonRank": "SPECIES", "kingdom": "Animalia", "phylum": "Chordata", "class": "Amphibia", "order": "Anura", "family": "Leptodactylidae", "genus": "Edalorhina", "species": "Edalorhina perezi", "recordedBy": "jeffreyps", "coordinateUncertaintyInMeters": 5.0, "source": "GBIF", "district": "TAMBOPATA" }, "geometry": { "type": "Point", "coordinates": [ -69.531647, -12.052897 ] } },
{ "type": "Feature", "properties": { "scientificName": "Bradypus variegatus infuscatus Wagler, 1831", "decimalLatitude": -12.592622, "decimalLongitude": -69.174545, "eventDate": "2026-01-31T13:41:19", "taxonRank": "SUBSPECIES", "kingdom": "Animalia", "phylum": "Chordata", "class": "Mammalia", "order": "Pilosa", "family": "Bradypodidae", "genus": "Bradypus", "species": "Bradypus variegatus", "recordedBy": "Rajan Rao", "coordinateUncertaintyInMeters": 4.0, "source": "GBIF", "district": "TAMBOPATA" }, "geometry": { "type": "Point", "coordinates": [ -69.174545, -12.592622 ] } },
{ "type": "Feature", "properties": { "scientificName": "Phlegopsis nigromaculata (Orbigny & Lafresnaye, 1837)", "decimalLatitude": -12.838677, "decimalLongitude": -69.293491, "eventDate": "2026-01-08T18:43:33", "taxonRank": "SPECIES", "kingdom": "Animalia", "phylum": "Chordata", "class": "Aves", "order": "Passeriformes", "family": "Thamnophilidae", "genus": "Phlegopsis", "species": "Phlegopsis nigromaculata", "recordedBy": "sanna_birding", "coordinateUncertaintyInMeters": 1288.0, "source": "GBIF", "district": "TAMBOPATA" }, "geometry": { "type": "Point", "coordinates": [ -69.293491, -12.838677 ] } },
{ "type": "Feature", "properties": { "scientificName": "Dendrexetastes rufigula (Lesson, 1844)", "decimalLatitude": -12.827756, "decimalLongitude": -69.289856, "eventDate": "2026-01-10T13:01:46", "taxonRank": "SPECIES", "kingdom": "Animalia", "phylum": "Chordata", "class": "Aves", "order": "Passeriformes", "family": "Furnariidae", "genus": "Dendrexetastes", "species": "Dendrexetastes rufigula", "recordedBy": "sanna_birding", "coordinateUncertaintyInMeters": 26.0, "source": "GBIF", "district": "TAMBOPATA" }, "geometry": { "type": "Point", "coordinates": [ -69.289856, -12.827756 ] } },
{ "type": "Feature", "properties": { "scientificName": "Crotophaga major Gmelin, 1788", "decimalLatitude": -12.790921, "decimalLongitude": -69.340428, "eventDate": "2026-01-07T15:58:16", "taxonRank": "SPECIES", "kingdom": "Animalia", "phylum": "Chordata", "class": "Aves", "order": "Cuculiformes", "family": "Cuculidae", "genus": "Crotophaga", "species": "Crotophaga major", "recordedBy": "sanna_birding", "coordinateUncertaintyInMeters": 404.0, "source": "GBIF", "district": "TAMBOPATA" }, "geometry": { "type": "Point", "coordinates": [ -69.340428, -12.790921 ] } },
{ "type": "Feature", "properties": { "scientificName": "Paroaria gularis (Linnaeus, 1766)", "decimalLatitude": -12.788154, "decimalLongitude": -69.339264, "eventDate": "2026-01-07T13:59:33", "taxonRank": "SPECIES", "kingdom": "Animalia", "phylum": "Chordata", "class": "Aves", "order": "Passeriformes", "family": "Thraupidae", "genus": "Paroaria", "species": "Paroaria gularis", "recordedBy": "sanna_birding", "coordinateUncertaintyInMeters": 81.0, "source": "GBIF", "district": "TAMBOPATA" }, "geometry": { "type": "Point", "coordinates": [ -69.339264, -12.788154 ] } },
{ "type": "Feature", "properties": { "scientificName": "Trogon viridis Linnaeus, 1766", "decimalLatitude": -12.836595, "decimalLongitude": -69.284021, "eventDate": "2026-01-08T00:34:13", "taxonRank": "SPECIES", "kingdom": "Animalia", "phylum": "Chordata", "class": "Aves", "order": "Trogoniformes", "family": "Trogonidae", "genus": "Trogon", "species": "Trogon viridis", "recordedBy": "sanna_birding", "coordinateUncertaintyInMeters": 146.0, "source": "GBIF", "district": "TAMBOPATA" }, "geometry": { "type": "Point", "coordinates": [ -69.284021, -12.836595 ] } },
{ "type": "Feature", "properties": { "scientificName": "Willisornis poecilinotus (Cabanis, 1847)", "decimalLatitude": -12.827726, "decimalLongitude": -69.28285, "eventDate": "2026-01-10T14:04:37", "taxonRank": "SPECIES", "kingdom": "Animalia", "phylum": "Chordata", "class": "Aves", "order": "Passeriformes", "family": "Thamnophilidae", "genus": "Willisornis", "species": "Willisornis poecilinotus", "recordedBy": "sanna_birding", "coordinateUncertaintyInMeters": 799.0, "source": "GBIF", "district": "TAMBOPATA" }, "geometry": { "type": "Point", "coordinates": [ -69.28285, -12.827726 ] } },
{ "type": "Feature", "properties": { "scientificName": "Campephilus melanoleucos (J.F.Gmelin, 1788)", "decimalLatitude": -12.784934, "decimalLongitude": -69.32775, "eventDate": "2026-01-07T14:18:38", "taxonRank": "SPECIES", "kingdom": "Animalia", "phylum": "Chordata", "class": "Aves", "order": "Piciformes", "family": "Picidae", "genus": "Campephilus", "species": "Campephilus melanoleucos", "recordedBy": "sanna_birding", "coordinateUncertaintyInMeters": 1214.0, "source": "GBIF", "district": "TAMBOPATA" }, "geometry": { "type": "Point", "coordinates": [ -69.32775, -12.784934 ] } },
{ "type": "Feature", "properties": { "scientificName": "Anolis tandai Avila-Pires, 1995", "decimalLatitude": -12.05228, "decimalLongitude": -69.535355, "eventDate": "2026-01-29T15:01:10", "taxonRank": "SPECIES", "kingdom": "Animalia", "phylum": "Chordata", "class": "Squamata", "order": null, "family": "Dactyloidae", "genus": "Anolis", "species": "Anolis tandai", "recordedBy": "mialoren24", "coordinateUncertaintyInMeters": 4.0, "source": "GBIF", "district": "TAMBOPATA" }, "geometry": { "type": "Point", "coordinates": [ -69.535355, -12.05228 ] } },
{ "type": "Feature", "properties": { "scientificName": "Oxysternon conspicillatum (Weber, 1801)", "decimalLatitude": -12.410678, "decimalLongitude": -69.6703, "eventDate": "2026-01-28T12:37:36", "taxonRank": "SPECIES", "kingdom": "Animalia", "phylum": "Arthropoda", "class": "Insecta", "order": "Coleoptera", "family": "Scarabaeidae", "genus": "Oxysternon", "species": "Oxysternon conspicillatum", "recordedBy": "Tapir Wasi - ARCNP", "coordinateUncertaintyInMeters": 7.0, "source": "GBIF", "district": "TAMBOPATA" }, "geometry": { "type": "Point", "coordinates": [ -69.6703, -12.410678 ] } },
{ "type": "Feature", "properties": { "scientificName": "Brotogeris cyanoptera (Pelzeln, 1870)", "decimalLatitude": -12.955713, "decimalLongitude": -69.360746, "eventDate": "2026-01-09T15:12:35", "taxonRank": "SPECIES", "kingdom": "Animalia", "phylum": "Chordata", "class": "Aves", "order": "Psittaciformes", "family": "Psittacidae", "genus": "Brotogeris", "species": "Brotogeris cyanoptera", "recordedBy": "sanna_birding", "coordinateUncertaintyInMeters": 31057.0, "source": "GBIF", "district": "TAMBOPATA" }, "geometry": { "type": "Point", "coordinates": [ -69.360746, -12.955713 ] } },
{ "type": "Feature", "properties": { "scientificName": "Morpho helenor Cramer, 1782", "decimalLatitude": -12.594462, "decimalLongitude": -69.17527, "eventDate": "2026-01-31T11:50:42", "taxonRank": "SPECIES", "kingdom": "Animalia", "phylum": "Arthropoda", "class": "Insecta", "order": "Lepidoptera", "family": "Nymphalidae", "genus": "Morpho", "species": "Morpho helenor", "recordedBy": "Rajan Rao", "coordinateUncertaintyInMeters": 15.0, "source": "GBIF", "district": "TAMBOPATA" }, "geometry": { "type": "Point", "coordinates": [ -69.17527, -12.594462 ] } },
{ "type": "Feature", "properties": { "scientificName": "Donacobius atricapilla (Linnaeus, 1766)", "decimalLatitude": -12.791393, "decimalLongitude": -69.344704, "eventDate": "2026-01-07T15:24:42", "taxonRank": "SPECIES", "kingdom": "Animalia", "phylum": "Chordata", "class": "Aves", "order": "Passeriformes", "family": "Donacobiidae", "genus": "Donacobius", "species": "Donacobius atricapilla", "recordedBy": "sanna_birding", "coordinateUncertaintyInMeters": 44.0, "source": "GBIF", "district": "TAMBOPATA" }, "geometry": { "type": "Point", "coordinates": [ -69.344704, -12.791393 ] } },
{ "type": "Feature", "properties": { "scientificName": "Gymnoderus foetidus (Linnaeus, 1758)", "decimalLatitude": -12.835324, "decimalLongitude": -69.293072, "eventDate": "2026-01-08T13:51:04", "taxonRank": "SPECIES", "kingdom": "Animalia", "phylum": "Chordata", "class": "Aves", "order": "Passeriformes", "family": "Cotingidae", "genus": "Gymnoderus", "species": "Gymnoderus foetidus", "recordedBy": "sanna_birding", "coordinateUncertaintyInMeters": 558.0, "source": "GBIF", "district": "TAMBOPATA" }, "geometry": { "type": "Point", "coordinates": [ -69.293072, -12.835324 ] } },
{ "type": "Feature", "properties": { "scientificName": "Galbula cyanescens Deville, 1849", "decimalLatitude": -12.841591, "decimalLongitude": -69.290915, "eventDate": "2026-01-08T18:44:55", "taxonRank": "SPECIES", "kingdom": "Animalia", "phylum": "Chordata", "class": "Aves", "order": "Piciformes", "family": "Galbulidae", "genus": "Galbula", "species": "Galbula cyanescens", "recordedBy": "sanna_birding", "coordinateUncertaintyInMeters": 862.0, "source": "GBIF", "district": "TAMBOPATA" }, "geometry": { "type": "Point", "coordinates": [ -69.290915, -12.841591 ] } },
{ "type": "Feature", "properties": { "scientificName": "Patagioenas cayennensis (Bonnaterre, 1792)", "decimalLatitude": -12.832341, "decimalLongitude": -69.266579, "eventDate": "2026-01-10T18:05:58", "taxonRank": "SPECIES", "kingdom": "Animalia", "phylum": "Chordata", "class": "Aves", "order": "Columbiformes", "family": "Columbidae", "genus": "Patagioenas", "species": "Patagioenas cayennensis", "recordedBy": "sanna_birding", "coordinateUncertaintyInMeters": 7387.0, "source": "GBIF", "district": "TAMBOPATA" }, "geometry": { "type": "Point", "coordinates": [ -69.266579, -12.832341 ] } },
{ "type": "Feature", "properties": { "scientificName": "Butorides striata (Linnaeus, 1758)", "decimalLatitude": -12.788424, "decimalLongitude": -69.340147, "eventDate": "2026-01-07T14:01:12", "taxonRank": "SPECIES", "kingdom": "Animalia", "phylum": "Chordata", "class": "Aves", "order": "Pelecaniformes", "family": "Ardeidae", "genus": "Butorides", "species": "Butorides striata", "recordedBy": "sanna_birding", "coordinateUncertaintyInMeters": 92.0, "source": "GBIF", "district": "TAMBOPATA" }, "geometry": { "type": "Point", "coordinates": [ -69.340147, -12.788424 ] } },
{ "type": "Feature", "properties": { "scientificName": "Tangara chilensis (Vigors, 1832)", "decimalLatitude": -12.836887, "decimalLongitude": -69.283909, "eventDate": "2026-01-07T23:45:30", "taxonRank": "SPECIES", "kingdom": "Animalia", "phylum": "Chordata", "class": "Aves", "order": "Passeriformes", "family": "Thraupidae", "genus": "Tangara", "species": "Tangara chilensis", "recordedBy": "sanna_birding", "coordinateUncertaintyInMeters": 17.0, "source": "GBIF", "district": "TAMBOPATA" }, "geometry": { "type": "Point", "coordinates": [ -69.283909, -12.836887 ] } },
{ "type": "Feature", "properties": { "scientificName": "Ara chloropterus G.R.Gray, 1859", "decimalLatitude": -12.868966, "decimalLongitude": -69.328885, "eventDate": "2026-01-07T17:11:34", "taxonRank": "SPECIES", "kingdom": "Animalia", "phylum": "Chordata", "class": "Aves", "order": "Psittaciformes", "family": "Psittacidae", "genus": "Ara", "species": "Ara chloropterus", "recordedBy": "sanna_birding", "coordinateUncertaintyInMeters": 31057.0, "source": "GBIF", "district": "TAMBOPATA" }, "geometry": { "type": "Point", "coordinates": [ -69.328885, -12.868966 ] } },
{ "type": "Feature", "properties": { "scientificName": "Pionites leucogaster (Kuhl, 1820)", "decimalLatitude": -12.633212, "decimalLongitude": -69.081475, "eventDate": "2026-01-02T07:37:36", "taxonRank": "SPECIES", "kingdom": "Animalia", "phylum": "Chordata", "class": "Aves", "order": "Psittaciformes", "family": "Psittacidae", "genus": "Pionites", "species": "Pionites leucogaster", "recordedBy": "abriberman", "coordinateUncertaintyInMeters": 31069.0, "source": "GBIF", "district": "TAMBOPATA" }, "geometry": { "type": "Point", "coordinates": [ -69.081475, -12.633212 ] } },
{ "type": "Feature", "properties": { "scientificName": "Pteroglossus beauharnaisii Wagler, 1831", "decimalLatitude": -12.836848, "decimalLongitude": -69.283815, "eventDate": "2026-01-07T23:30:26", "taxonRank": "SPECIES", "kingdom": "Animalia", "phylum": "Chordata", "class": "Aves", "order": "Piciformes", "family": "Ramphastidae", "genus": "Pteroglossus", "species": "Pteroglossus beauharnaisii", "recordedBy": "sanna_birding", "coordinateUncertaintyInMeters": 50.0, "source": "GBIF", "district": "TAMBOPATA" }, "geometry": { "type": "Point", "coordinates": [ -69.283815, -12.836848 ] } },
{ "type": "Feature", "properties": { "scientificName": "Chloroceryle amazona (Latham, 1790)", "decimalLatitude": -12.78995, "decimalLongitude": -69.347891, "eventDate": "2026-01-07T15:36:05", "taxonRank": "SPECIES", "kingdom": "Animalia", "phylum": "Chordata", "class": "Aves", "order": "Coraciiformes", "family": "Alcedinidae", "genus": "Chloroceryle", "species": "Chloroceryle amazona", "recordedBy": "sanna_birding", "coordinateUncertaintyInMeters": 446.0, "source": "GBIF", "district": "TAMBOPATA" }, "geometry": { "type": "Point", "coordinates": [ -69.347891, -12.78995 ] } },
{ "type": "Feature", "properties": { "scientificName": "Tityra cayana (Linnaeus, 1766)", "decimalLatitude": -12.836931, "decimalLongitude": -69.283732, "eventDate": "2026-01-07T23:48:58", "taxonRank": "SPECIES", "kingdom": "Animalia", "phylum": "Chordata", "class": "Aves", "order": "Passeriformes", "family": "Cotingidae", "genus": "Tityra", "species": "Tityra cayana", "recordedBy": "sanna_birding", "coordinateUncertaintyInMeters": 98.0, "source": "GBIF", "district": "TAMBOPATA" }, "geometry": { "type": "Point", "coordinates": [ -69.283732, -12.836931 ] } },
{ "type": "Feature", "properties": { "scientificName": "Notharchus hyperrhynchus (P.L.Sclater, 1856)", "decimalLatitude": -12.836899, "decimalLongitude": -69.283999, "eventDate": "2026-01-07T22:53:38", "taxonRank": "SPECIES", "kingdom": "Animalia", "phylum": "Chordata", "class": "Aves", "order": "Piciformes", "family": "Bucconidae", "genus": "Notharchus", "species": "Notharchus hyperrhynchus", "recordedBy": "sanna_birding", "coordinateUncertaintyInMeters": 26.0, "source": "GBIF", "district": "TAMBOPATA" }, "geometry": { "type": "Point", "coordinates": [ -69.283999, -12.836899 ] } },
{ "type": "Feature", "properties": { "scientificName": "Myrmoborus leucophrys (Tschudi, 1844)", "decimalLatitude": -12.840864, "decimalLongitude": -69.281645, "eventDate": "2026-01-08T21:40:27", "taxonRank": "SPECIES", "kingdom": "Animalia", "phylum": "Chordata", "class": "Aves", "order": "Passeriformes", "family": "Thamnophilidae", "genus": "Myrmoborus", "species": "Myrmoborus leucophrys", "recordedBy": "sanna_birding", "coordinateUncertaintyInMeters": 2833.0, "source": "GBIF", "district": "TAMBOPATA" }, "geometry": { "type": "Point", "coordinates": [ -69.281645, -12.840864 ] } },
{ "type": "Feature", "properties": { "scientificName": "Icterus croconotus (Wagler, 1829)", "decimalLatitude": -12.836748, "decimalLongitude": -69.293507, "eventDate": "2026-01-08T23:23:58", "taxonRank": "SPECIES", "kingdom": "Animalia", "phylum": "Chordata", "class": "Aves", "order": "Passeriformes", "family": "Icteridae", "genus": "Icterus", "species": "Icterus icterus", "recordedBy": "sanna_birding", "coordinateUncertaintyInMeters": 30.0, "source": "GBIF", "district": "TAMBOPATA" }, "geometry": { "type": "Point", "coordinates": [ -69.293507, -12.836748 ] } },
{ "type": "Feature", "properties": { "scientificName": "Parkerthraustes humeralis (Lawrence, 1867)", "decimalLatitude": -12.835947, "decimalLongitude": -69.283756, "eventDate": "2026-01-07T23:54:57", "taxonRank": "SPECIES", "kingdom": "Animalia", "phylum": "Chordata", "class": "Aves", "order": "Passeriformes", "family": "Thraupidae", "genus": "Parkerthraustes", "species": "Parkerthraustes humeralis", "recordedBy": "sanna_birding", "coordinateUncertaintyInMeters": 643.0, "source": "GBIF", "district": "TAMBOPATA" }, "geometry": { "type": "Point", "coordinates": [ -69.283756, -12.835947 ] } },
{ "type": "Feature", "properties": { "scientificName": "Dacnis cayana (Linnaeus, 1766)", "decimalLatitude": -12.836807, "decimalLongitude": -69.283921, "eventDate": "2026-01-07T23:57:15", "taxonRank": "SPECIES", "kingdom": "Animalia", "phylum": "Chordata", "class": "Aves", "order": "Passeriformes", "family": "Thraupidae", "genus": "Dacnis", "species": "Dacnis cayana", "recordedBy": "sanna_birding", "coordinateUncertaintyInMeters": 69.0, "source": "GBIF", "district": "TAMBOPATA" }, "geometry": { "type": "Point", "coordinates": [ -69.283921, -12.836807 ] } },
{ "type": "Feature", "properties": { "scientificName": "Saltator maximus (P.L.S.Müller, 1776)", "decimalLatitude": -12.836101, "decimalLongitude": -69.294549, "eventDate": "2026-01-08T15:48:33", "taxonRank": "SPECIES", "kingdom": "Animalia", "phylum": "Chordata", "class": "Aves", "order": "Passeriformes", "family": "Thraupidae", "genus": "Saltator", "species": "Saltator maximus", "recordedBy": "sanna_birding", "coordinateUncertaintyInMeters": 92.0, "source": "GBIF", "district": "TAMBOPATA" }, "geometry": { "type": "Point", "coordinates": [ -69.294549, -12.836101 ] } },
{ "type": "Feature", "properties": { "scientificName": "Hamptophryne boliviana (Parker, 1927)", "decimalLatitude": -12.037103, "decimalLongitude": -69.542383, "eventDate": "2026-01-30T06:44:43", "taxonRank": "SPECIES", "kingdom": "Animalia", "phylum": "Chordata", "class": "Amphibia", "order": "Anura", "family": "Microhylidae", "genus": "Hamptophryne", "species": "Hamptophryne boliviana", "recordedBy": "jeffreyps", "coordinateUncertaintyInMeters": 2504.0, "source": "GBIF", "district": "TAMBOPATA" }, "geometry": { "type": "Point", "coordinates": [ -69.542383, -12.037103 ] } },
{ "type": "Feature", "properties": { "scientificName": "Nannopterum brasilianum (J.F.Gmelin, 1789)", "decimalLatitude": -12.789058, "decimalLongitude": -69.334701, "eventDate": "2026-01-07T16:11:22", "taxonRank": "SPECIES", "kingdom": "Animalia", "phylum": "Chordata", "class": "Aves", "order": "Suliformes", "family": "Phalacrocoracidae", "genus": "Phalacrocorax", "species": "Phalacrocorax brasilianus", "recordedBy": "sanna_birding", "coordinateUncertaintyInMeters": 312.0, "source": "GBIF", "district": "TAMBOPATA" }, "geometry": { "type": "Point", "coordinates": [ -69.334701, -12.789058 ] } },
{ "type": "Feature", "properties": { "scientificName": "Oxysternon conspicillatum (Weber, 1801)", "decimalLatitude": -12.410803, "decimalLongitude": -69.67034, "eventDate": "2026-01-28T12:36:58", "taxonRank": "SPECIES", "kingdom": "Animalia", "phylum": "Arthropoda", "class": "Insecta", "order": "Coleoptera", "family": "Scarabaeidae", "genus": "Oxysternon", "species": "Oxysternon conspicillatum", "recordedBy": "Tapir Wasi - ARCNP", "coordinateUncertaintyInMeters": 9.0, "source": "GBIF", "district": "TAMBOPATA" }, "geometry": { "type": "Point", "coordinates": [ -69.67034, -12.410803 ] } },
{ "type": "Feature", "properties": { "scientificName": "Psarocolius angustifrons (Spix, 1824)", "decimalLatitude": -12.836416, "decimalLongitude": -69.294246, "eventDate": "2026-01-08T11:59:56", "taxonRank": "SPECIES", "kingdom": "Animalia", "phylum": "Chordata", "class": "Aves", "order": "Passeriformes", "family": "Icteridae", "genus": "Psarocolius", "species": "Psarocolius angustifrons", "recordedBy": "sanna_birding", "coordinateUncertaintyInMeters": 195.0, "source": "GBIF", "district": "TAMBOPATA" }, "geometry": { "type": "Point", "coordinates": [ -69.294246, -12.836416 ] } },
{ "type": "Feature", "properties": { "scientificName": "Melanerpes cruentatus (Boddaert, 1783)", "decimalLatitude": -12.836734, "decimalLongitude": -69.293494, "eventDate": "2026-01-07T22:03:18", "taxonRank": "SPECIES", "kingdom": "Animalia", "phylum": "Chordata", "class": "Aves", "order": "Piciformes", "family": "Picidae", "genus": "Melanerpes", "species": "Melanerpes cruentatus", "recordedBy": "sanna_birding", "coordinateUncertaintyInMeters": 4.0, "source": "GBIF", "district": "TAMBOPATA" }, "geometry": { "type": "Point", "coordinates": [ -69.293494, -12.836734 ] } },
{ "type": "Feature", "properties": { "scientificName": "Thamnophilus doliatus (Linnaeus, 1764)", "decimalLatitude": -12.835416, "decimalLongitude": -69.294073, "eventDate": "2026-01-08T13:37:49", "taxonRank": "SPECIES", "kingdom": "Animalia", "phylum": "Chordata", "class": "Aves", "order": "Passeriformes", "family": "Thamnophilidae", "genus": "Thamnophilus", "species": "Thamnophilus doliatus", "recordedBy": "sanna_birding", "coordinateUncertaintyInMeters": 63.0, "source": "GBIF", "district": "TAMBOPATA" }, "geometry": { "type": "Point", "coordinates": [ -69.294073, -12.835416 ] } },
{ "type": "Feature", "properties": { "scientificName": "Myiozetetes cayanensis (Linnaeus, 1766)", "decimalLatitude": -12.837483, "decimalLongitude": -69.293454, "eventDate": "2026-01-08T20:56:42", "taxonRank": "SPECIES", "kingdom": "Animalia", "phylum": "Chordata", "class": "Aves", "order": "Passeriformes", "family": "Tyrannidae", "genus": "Myiozetetes", "species": "Myiozetetes cayanensis", "recordedBy": "sanna_birding", "coordinateUncertaintyInMeters": 271.0, "source": "GBIF", "district": "TAMBOPATA" }, "geometry": { "type": "Point", "coordinates": [ -69.293454, -12.837483 ] } },
{ "type": "Feature", "properties": { "scientificName": "Pteroglossus castanotis Gould, 1834", "decimalLatitude": -12.83459, "decimalLongitude": -69.293094, "eventDate": "2026-01-08T16:33:25", "taxonRank": "SPECIES", "kingdom": "Animalia", "phylum": "Chordata", "class": "Aves", "order": "Piciformes", "family": "Ramphastidae", "genus": "Pteroglossus", "species": "Pteroglossus castanotis", "recordedBy": "sanna_birding", "coordinateUncertaintyInMeters": 75.0, "source": "GBIF", "district": "TAMBOPATA" }, "geometry": { "type": "Point", "coordinates": [ -69.293094, -12.83459 ] } },
{ "type": "Feature", "properties": { "scientificName": "Cochlearius cochlearius (Linnaeus, 1766)", "decimalLatitude": -12.818391, "decimalLongitude": -69.261597, "eventDate": "2026-01-10T15:30:12", "taxonRank": "SPECIES", "kingdom": "Animalia", "phylum": "Chordata", "class": "Aves", "order": "Pelecaniformes", "family": "Ardeidae", "genus": "Cochlearius", "species": "Cochlearius cochlearius", "recordedBy": "sanna_birding", "coordinateUncertaintyInMeters": 20.0, "source": "GBIF", "district": "TAMBOPATA" }, "geometry": { "type": "Point", "coordinates": [ -69.261597, -12.818391 ] } },
{ "type": "Feature", "properties": { "scientificName": "Leptotila rufaxilla (Richard & Bernard, 1792)", "decimalLatitude": -12.786684, "decimalLongitude": -69.325845, "eventDate": "2026-01-07T18:39:55", "taxonRank": "SPECIES", "kingdom": "Animalia", "phylum": "Chordata", "class": "Aves", "order": "Columbiformes", "family": "Columbidae", "genus": "Leptotila", "species": "Leptotila rufaxilla", "recordedBy": "sanna_birding", "coordinateUncertaintyInMeters": 11641.0, "source": "GBIF", "district": "TAMBOPATA" }, "geometry": { "type": "Point", "coordinates": [ -69.325845, -12.786684 ] } },
{ "type": "Feature", "properties": { "scientificName": "Sclateria naevia (Gmelin, 1788)", "decimalLatitude": -12.788772, "decimalLongitude": -69.34098, "eventDate": "2026-01-07T15:41:19", "taxonRank": "SPECIES", "kingdom": "Animalia", "phylum": "Chordata", "class": "Aves", "order": "Passeriformes", "family": "Thamnophilidae", "genus": "Sclateria", "species": "Sclateria naevia", "recordedBy": "sanna_birding", "coordinateUncertaintyInMeters": 616.0, "source": "GBIF", "district": "TAMBOPATA" }, "geometry": { "type": "Point", "coordinates": [ -69.34098, -12.788772 ] } },
{ "type": "Feature", "properties": { "scientificName": "Tangara mexicana (Linnaeus, 1766)", "decimalLatitude": -12.836998, "decimalLongitude": -69.283867, "eventDate": "2026-01-09T14:06:25", "taxonRank": "SPECIES", "kingdom": "Animalia", "phylum": "Chordata", "class": "Aves", "order": "Passeriformes", "family": "Thraupidae", "genus": "Tangara", "species": "Tangara mexicana", "recordedBy": "sanna_birding", "coordinateUncertaintyInMeters": 30.0, "source": "GBIF", "district": "TAMBOPATA" }, "geometry": { "type": "Point", "coordinates": [ -69.283867, -12.836998 ] } },
{ "type": "Feature", "properties": { "scientificName": "Opisthocomus hoazin (Statius Muller, 1776)", "decimalLatitude": -12.791302, "decimalLongitude": -69.343376, "eventDate": "2026-01-07T15:58:24", "taxonRank": "SPECIES", "kingdom": "Animalia", "phylum": "Chordata", "class": "Aves", "order": "Opisthocomiformes", "family": "Opisthocomidae", "genus": "Opisthocomus", "species": "Opisthocomus hoazin", "recordedBy": "sanna_birding", "coordinateUncertaintyInMeters": 369.0, "source": "GBIF", "district": "TAMBOPATA" }, "geometry": { "type": "Point", "coordinates": [ -69.343376, -12.791302 ] } },
{ "type": "Feature", "properties": { "scientificName": "Monasa nigrifrons (von Spix, 1824)", "decimalLatitude": -12.83538, "decimalLongitude": -69.291937, "eventDate": "2026-01-08T18:44:10", "taxonRank": "SPECIES", "kingdom": "Animalia", "phylum": "Chordata", "class": "Aves", "order": "Piciformes", "family": "Bucconidae", "genus": "Monasa", "species": "Monasa nigrifrons", "recordedBy": "sanna_birding", "coordinateUncertaintyInMeters": 2014.0, "source": "GBIF", "district": "TAMBOPATA" }, "geometry": { "type": "Point", "coordinates": [ -69.291937, -12.83538 ] } },
{ "type": "Feature", "properties": { "scientificName": "Dacnis lineata (J.F.Gmelin, 1789)", "decimalLatitude": -12.836873, "decimalLongitude": -69.283877, "eventDate": "2026-01-09T14:04:51", "taxonRank": "SPECIES", "kingdom": "Animalia", "phylum": "Chordata", "class": "Aves", "order": "Passeriformes", "family": "Thraupidae", "genus": "Dacnis", "species": "Dacnis lineata", "recordedBy": "sanna_birding", "coordinateUncertaintyInMeters": 60.0, "source": "GBIF", "district": "TAMBOPATA" }, "geometry": { "type": "Point", "coordinates": [ -69.283877, -12.836873 ] } },
{ "type": "Feature", "properties": { "scientificName": "Ramphocelus carbo (Pallas, 1764)", "decimalLatitude": -12.841761, "decimalLongitude": -69.290575, "eventDate": "2026-01-08T16:11:08", "taxonRank": "SPECIES", "kingdom": "Animalia", "phylum": "Chordata", "class": "Aves", "order": "Passeriformes", "family": "Thraupidae", "genus": "Ramphocelus", "species": "Ramphocelus carbo", "recordedBy": "sanna_birding", "coordinateUncertaintyInMeters": 1835.0, "source": "GBIF", "district": "TAMBOPATA" }, "geometry": { "type": "Point", "coordinates": [ -69.290575, -12.841761 ] } },
{ "type": "Feature", "properties": { "scientificName": "Selenidera reinwardtii (Wagler, 1827)", "decimalLatitude": -12.836627, "decimalLongitude": -69.283904, "eventDate": "2026-01-07T23:05:10", "taxonRank": "SPECIES", "kingdom": "Animalia", "phylum": "Chordata", "class": "Aves", "order": "Piciformes", "family": "Ramphastidae", "genus": "Selenidera", "species": "Selenidera reinwardtii", "recordedBy": "sanna_birding", "coordinateUncertaintyInMeters": 101.0, "source": "GBIF", "district": "TAMBOPATA" }, "geometry": { "type": "Point", "coordinates": [ -69.283904, -12.836627 ] } },
{ "type": "Feature", "properties": { "scientificName": "Galbula cyanescens Deville, 1849", "decimalLatitude": -12.836081, "decimalLongitude": -69.294324, "eventDate": "2026-01-08T14:41:03", "taxonRank": "SPECIES", "kingdom": "Animalia", "phylum": "Chordata", "class": "Aves", "order": "Piciformes", "family": "Galbulidae", "genus": "Galbula", "species": "Galbula cyanescens", "recordedBy": "sanna_birding", "coordinateUncertaintyInMeters": 74.0, "source": "GBIF", "district": "TAMBOPATA" }, "geometry": { "type": "Point", "coordinates": [ -69.294324, -12.836081 ] } },
{ "type": "Feature", "properties": { "scientificName": "Celeus elegans (P.L.S.Müller, 1776)", "decimalLatitude": -12.837303, "decimalLongitude": -69.29502, "eventDate": "2026-01-08T18:22:07", "taxonRank": "SPECIES", "kingdom": "Animalia", "phylum": "Chordata", "class": "Aves", "order": "Piciformes", "family": "Picidae", "genus": "Celeus", "species": "Celeus elegans", "recordedBy": "sanna_birding", "coordinateUncertaintyInMeters": 101.0, "source": "GBIF", "district": "TAMBOPATA" }, "geometry": { "type": "Point", "coordinates": [ -69.29502, -12.837303 ] } },
{ "type": "Feature", "properties": { "scientificName": "Euphonia chrysopasta P.L.Sclater & Salvin, 1869", "decimalLatitude": -12.836367, "decimalLongitude": -69.294851, "eventDate": "2026-01-08T13:55:51", "taxonRank": "SPECIES", "kingdom": "Animalia", "phylum": "Chordata", "class": "Aves", "order": "Passeriformes", "family": "Fringillidae", "genus": "Euphonia", "species": "Euphonia chrysopasta", "recordedBy": "sanna_birding", "coordinateUncertaintyInMeters": 57.0, "source": "GBIF", "district": "TAMBOPATA" }, "geometry": { "type": "Point", "coordinates": [ -69.294851, -12.836367 ] } },
{ "type": "Feature", "properties": { "scientificName": "Sirystes albocinereus P.L.Sclater & Salvin, 1880", "decimalLatitude": -12.836971, "decimalLongitude": -69.283914, "eventDate": "2026-01-07T23:42:52", "taxonRank": "SPECIES", "kingdom": "Animalia", "phylum": "Chordata", "class": "Aves", "order": "Passeriformes", "family": "Tyrannidae", "genus": "Sirystes", "species": "Sirystes albocinereus", "recordedBy": "sanna_birding", "coordinateUncertaintyInMeters": 62.0, "source": "GBIF", "district": "TAMBOPATA" }, "geometry": { "type": "Point", "coordinates": [ -69.283914, -12.836971 ] } },
{ "type": "Feature", "properties": { "scientificName": "Tityra semifasciata (Spix, 1825)", "decimalLatitude": -12.836694, "decimalLongitude": -69.28381, "eventDate": "2026-01-07T22:13:44", "taxonRank": "SPECIES", "kingdom": "Animalia", "phylum": "Chordata", "class": "Aves", "order": "Passeriformes", "family": "Cotingidae", "genus": "Tityra", "species": "Tityra semifasciata", "recordedBy": "sanna_birding", "coordinateUncertaintyInMeters": 157.0, "source": "GBIF", "district": "TAMBOPATA" }, "geometry": { "type": "Point", "coordinates": [ -69.28381, -12.836694 ] } },
{ "type": "Feature", "properties": { "scientificName": "Jacana jacana (Linnaeus, 1766)", "decimalLatitude": -12.787802, "decimalLongitude": -69.333498, "eventDate": "2026-01-07T16:20:32", "taxonRank": "SPECIES", "kingdom": "Animalia", "phylum": "Chordata", "class": "Aves", "order": "Charadriiformes", "family": "Jacanidae", "genus": "Jacana", "species": "Jacana jacana", "recordedBy": "sanna_birding", "coordinateUncertaintyInMeters": 186.0, "source": "GBIF", "district": "TAMBOPATA" }, "geometry": { "type": "Point", "coordinates": [ -69.333498, -12.787802 ] } },
{ "type": "Feature", "properties": { "scientificName": "Campylorhynchus turdinus (Wied-Neuwied, 1821)", "decimalLatitude": -12.836823, "decimalLongitude": -69.293457, "eventDate": "2026-01-07T18:55:30", "taxonRank": "SPECIES", "kingdom": "Animalia", "phylum": "Chordata", "class": "Aves", "order": "Passeriformes", "family": "Troglodytidae", "genus": "Campylorhynchus", "species": "Campylorhynchus turdinus", "recordedBy": "sanna_birding", "coordinateUncertaintyInMeters": 64.0, "source": "GBIF", "district": "TAMBOPATA" }, "geometry": { "type": "Point", "coordinates": [ -69.293457, -12.836823 ] } },
{ "type": "Feature", "properties": { "scientificName": "Ara severus (Linnaeus, 1758)", "decimalLatitude": -12.983643, "decimalLongitude": -69.345884, "eventDate": "2026-01-10T12:53:48", "taxonRank": "SPECIES", "kingdom": "Animalia", "phylum": "Chordata", "class": "Aves", "order": "Psittaciformes", "family": "Psittacidae", "genus": "Ara", "species": "Ara severus", "recordedBy": "sanna_birding", "coordinateUncertaintyInMeters": 31057.0, "source": "GBIF", "district": "TAMBOPATA" }, "geometry": { "type": "Point", "coordinates": [ -69.345884, -12.983643 ] } },
{ "type": "Feature", "properties": { "scientificName": "Turdus ignobilis P.L.Sclater, 1858", "decimalLatitude": -12.836689, "decimalLongitude": -69.29358, "eventDate": "2026-01-08T11:56:41", "taxonRank": "SPECIES", "kingdom": "Animalia", "phylum": "Chordata", "class": "Aves", "order": "Passeriformes", "family": "Turdidae", "genus": "Turdus", "species": "Turdus ignobilis", "recordedBy": "sanna_birding", "coordinateUncertaintyInMeters": 93.0, "source": "GBIF", "district": "TAMBOPATA" }, "geometry": { "type": "Point", "coordinates": [ -69.29358, -12.836689 ] } },
{ "type": "Feature", "properties": { "scientificName": "Ara macao (Linnaeus, 1758)", "decimalLatitude": -12.869198, "decimalLongitude": -69.342811, "eventDate": "2026-01-13T13:22:20", "taxonRank": "SPECIES", "kingdom": "Animalia", "phylum": "Chordata", "class": "Aves", "order": "Psittaciformes", "family": "Psittacidae", "genus": "Ara", "species": "Ara macao", "recordedBy": "sanna_birding", "coordinateUncertaintyInMeters": 31057.0, "source": "GBIF", "district": "TAMBOPATA" }, "geometry": { "type": "Point", "coordinates": [ -69.342811, -12.869198 ] } },
{ "type": "Feature", "properties": { "scientificName": "Thamnomanes ardesiacus (P.L.Sclater & Salvin, 1868)", "decimalLatitude": -12.839029, "decimalLongitude": -69.294598, "eventDate": "2026-01-11T15:27:56", "taxonRank": "SPECIES", "kingdom": "Animalia", "phylum": "Chordata", "class": "Aves", "order": "Passeriformes", "family": "Thamnophilidae", "genus": "Thamnomanes", "species": "Thamnomanes ardesiacus", "recordedBy": "sanna_birding", "coordinateUncertaintyInMeters": 271.0, "source": "GBIF", "district": "TAMBOPATA" }, "geometry": { "type": "Point", "coordinates": [ -69.294598, -12.839029 ] } },
{ "type": "Feature", "properties": { "scientificName": "Pilherodius pileatus (Boddaert, 1783)", "decimalLatitude": -12.798342, "decimalLongitude": -69.312458, "eventDate": "2026-01-13T00:15:30", "taxonRank": "SPECIES", "kingdom": "Animalia", "phylum": "Chordata", "class": "Aves", "order": "Pelecaniformes", "family": "Ardeidae", "genus": "Pilherodius", "species": "Pilherodius pileatus", "recordedBy": "sanna_birding", "coordinateUncertaintyInMeters": 90.0, "source": "GBIF", "district": "TAMBOPATA" }, "geometry": { "type": "Point", "coordinates": [ -69.312458, -12.798342 ] } },
{ "type": "Feature", "properties": { "scientificName": "Hoploxypterus cayanus (Latham, 1790)", "decimalLatitude": -12.84273, "decimalLongitude": -69.297102, "eventDate": "2026-01-11T22:28:07", "taxonRank": "SPECIES", "kingdom": "Animalia", "phylum": "Chordata", "class": "Aves", "order": "Charadriiformes", "family": "Charadriidae", "genus": "Hoploxypterus", "species": "Hoploxypterus cayanus", "recordedBy": "sanna_birding", "coordinateUncertaintyInMeters": 90.0, "source": "GBIF", "district": "TAMBOPATA" }, "geometry": { "type": "Point", "coordinates": [ -69.297102, -12.84273 ] } },
{ "type": "Feature", "properties": { "scientificName": "Geotrygon montana (Linnaeus, 1758)", "decimalLatitude": -12.836685, "decimalLongitude": -69.290418, "eventDate": "2026-01-13T12:05:56", "taxonRank": "SPECIES", "kingdom": "Animalia", "phylum": "Chordata", "class": "Aves", "order": "Columbiformes", "family": "Columbidae", "genus": "Geotrygon", "species": "Geotrygon montana", "recordedBy": "sanna_birding", "coordinateUncertaintyInMeters": 346.0, "source": "GBIF", "district": "TAMBOPATA" }, "geometry": { "type": "Point", "coordinates": [ -69.290418, -12.836685 ] } },
{ "type": "Feature", "properties": { "scientificName": "Tangara schrankii (Spix, 1825)", "decimalLatitude": -12.836836, "decimalLongitude": -69.283978, "eventDate": "2026-01-09T14:03:24", "taxonRank": "SPECIES", "kingdom": "Animalia", "phylum": "Chordata", "class": "Aves", "order": "Passeriformes", "family": "Thraupidae", "genus": "Tangara", "species": "Tangara schrankii", "recordedBy": "sanna_birding", "coordinateUncertaintyInMeters": 51.0, "source": "GBIF", "district": "TAMBOPATA" }, "geometry": { "type": "Point", "coordinates": [ -69.283978, -12.836836 ] } },
{ "type": "Feature", "properties": { "scientificName": "Todirostrum maculatum (Desmarest, 1806)", "decimalLatitude": -12.592925, "decimalLongitude": -69.174858, "eventDate": "2026-01-31T14:00:59", "taxonRank": "SPECIES", "kingdom": "Animalia", "phylum": "Chordata", "class": "Aves", "order": "Passeriformes", "family": "Tyrannidae", "genus": "Todirostrum", "species": "Todirostrum maculatum", "recordedBy": "Rajan Rao", "coordinateUncertaintyInMeters": 4.0, "source": "GBIF", "district": "TAMBOPATA" }, "geometry": { "type": "Point", "coordinates": [ -69.174858, -12.592925 ] } },
{ "type": "Feature", "properties": { "scientificName": "Ramphastos vitellinus M.H.K.Lichtenstein, 1823", "decimalLatitude": -12.83618, "decimalLongitude": -69.284185, "eventDate": "2026-01-13T12:45:01", "taxonRank": "SPECIES", "kingdom": "Animalia", "phylum": "Chordata", "class": "Aves", "order": "Piciformes", "family": "Ramphastidae", "genus": "Ramphastos", "species": "Ramphastos vitellinus", "recordedBy": "sanna_birding", "coordinateUncertaintyInMeters": 129.0, "source": "GBIF", "district": "TAMBOPATA" }, "geometry": { "type": "Point", "coordinates": [ -69.284185, -12.83618 ] } },
{ "type": "Feature", "properties": { "scientificName": "Anhima cornuta (Linnaeus, 1766)", "decimalLatitude": -12.852779, "decimalLongitude": -69.297907, "eventDate": "2026-01-12T16:45:58", "taxonRank": "SPECIES", "kingdom": "Animalia", "phylum": "Chordata", "class": "Aves", "order": "Anseriformes", "family": "Anhimidae", "genus": "Anhima", "species": "Anhima cornuta", "recordedBy": "sanna_birding", "coordinateUncertaintyInMeters": 347.0, "source": "GBIF", "district": "TAMBOPATA" }, "geometry": { "type": "Point", "coordinates": [ -69.297907, -12.852779 ] } },
{ "type": "Feature", "properties": { "scientificName": "Semiotus ligneus (Linnaeus, 1767)", "decimalLatitude": -12.05318, "decimalLongitude": -69.535713, "eventDate": "2026-01-31T11:42:21", "taxonRank": "SPECIES", "kingdom": "Animalia", "phylum": "Arthropoda", "class": "Insecta", "order": "Coleoptera", "family": "Elateridae", "genus": "Semiotus", "species": "Semiotus ligneus", "recordedBy": "jeffreyps", "coordinateUncertaintyInMeters": 13.0, "source": "GBIF", "district": "TAMBOPATA" }, "geometry": { "type": "Point", "coordinates": [ -69.535713, -12.05318 ] } },
{ "type": "Feature", "properties": { "scientificName": "Daptrius ater Vieillot, 1816", "decimalLatitude": -12.84416, "decimalLongitude": -69.297033, "eventDate": "2026-01-11T23:59:09", "taxonRank": "SPECIES", "kingdom": "Animalia", "phylum": "Chordata", "class": "Aves", "order": "Falconiformes", "family": "Falconidae", "genus": "Daptrius", "species": "Daptrius ater", "recordedBy": "sanna_birding", "coordinateUncertaintyInMeters": 267.0, "source": "GBIF", "district": "TAMBOPATA" }, "geometry": { "type": "Point", "coordinates": [ -69.297033, -12.84416 ] } },
{ "type": "Feature", "properties": { "scientificName": "Aulacorhynchus albivitta (Boissonneau, 1840)", "decimalLatitude": -12.836376, "decimalLongitude": -69.294358, "eventDate": "2026-01-11T13:08:08", "taxonRank": "SPECIES", "kingdom": "Animalia", "phylum": "Chordata", "class": "Aves", "order": "Piciformes", "family": "Ramphastidae", "genus": "Aulacorhynchus", "species": "Aulacorhynchus albivitta", "recordedBy": "sanna_birding", "coordinateUncertaintyInMeters": 99.0, "source": "GBIF", "district": "TAMBOPATA" }, "geometry": { "type": "Point", "coordinates": [ -69.294358, -12.836376 ] } },
{ "type": "Feature", "properties": { "scientificName": "Spizaetus tyrannus (Wied-Neuwied, 1820)", "decimalLatitude": -12.849233, "decimalLongitude": -69.295741, "eventDate": "2026-01-12T16:28:56", "taxonRank": "SPECIES", "kingdom": "Animalia", "phylum": "Chordata", "class": "Aves", "order": "Accipitriformes", "family": "Accipitridae", "genus": "Spizaetus", "species": "Spizaetus tyrannus", "recordedBy": "sanna_birding", "coordinateUncertaintyInMeters": 370.0, "source": "GBIF", "district": "TAMBOPATA" }, "geometry": { "type": "Point", "coordinates": [ -69.295741, -12.849233 ] } },
{ "type": "Feature", "properties": { "scientificName": "Phoneutria boliviensis (F.O.Pickard-Cambridge, 1897)", "decimalLatitude": -12.050433, "decimalLongitude": -69.532037, "eventDate": "2026-01-31T20:38:38", "taxonRank": "SPECIES", "kingdom": "Animalia", "phylum": "Arthropoda", "class": "Arachnida", "order": "Araneae", "family": "Ctenidae", "genus": "Phoneutria", "species": "Phoneutria boliviensis", "recordedBy": "jeffreyps", "coordinateUncertaintyInMeters": 5.0, "source": "GBIF", "district": "TAMBOPATA" }, "geometry": { "type": "Point", "coordinates": [ -69.532037, -12.050433 ] } },
{ "type": "Feature", "properties": { "scientificName": "Momotus momota (Linnaeus, 1766)", "decimalLatitude": -12.838705, "decimalLongitude": -69.29592, "eventDate": "2026-01-08T22:18:15", "taxonRank": "SPECIES", "kingdom": "Animalia", "phylum": "Chordata", "class": "Aves", "order": "Coraciiformes", "family": "Momotidae", "genus": "Momotus", "species": "Momotus momota", "recordedBy": "sanna_birding", "coordinateUncertaintyInMeters": 162.0, "source": "GBIF", "district": "TAMBOPATA" }, "geometry": { "type": "Point", "coordinates": [ -69.29592, -12.838705 ] } },
{ "type": "Feature", "properties": { "scientificName": "Pionites leucogaster (Kuhl, 1820)", "decimalLatitude": -12.947472, "decimalLongitude": -69.376412, "eventDate": "2026-01-13T13:07:08", "taxonRank": "SPECIES", "kingdom": "Animalia", "phylum": "Chordata", "class": "Aves", "order": "Psittaciformes", "family": "Psittacidae", "genus": "Pionites", "species": "Pionites leucogaster", "recordedBy": "sanna_birding", "coordinateUncertaintyInMeters": 31057.0, "source": "GBIF", "district": "TAMBOPATA" }, "geometry": { "type": "Point", "coordinates": [ -69.376412, -12.947472 ] } },
{ "type": "Feature", "properties": { "scientificName": "Platyrinchus coronatus P.L.Sclater, 1858", "decimalLatitude": -12.837151, "decimalLongitude": -69.291829, "eventDate": "2026-01-13T16:55:15", "taxonRank": "SPECIES", "kingdom": "Animalia", "phylum": "Chordata", "class": "Aves", "order": "Passeriformes", "family": "Tyrannidae", "genus": "Platyrinchus", "species": "Platyrinchus coronatus", "recordedBy": "sanna_birding", "coordinateUncertaintyInMeters": 161.0, "source": "GBIF", "district": "TAMBOPATA" }, "geometry": { "type": "Point", "coordinates": [ -69.291829, -12.837151 ] } },
{ "type": "Feature", "properties": { "scientificName": "Tyrannus tyrannus (Linnaeus, 1758)", "decimalLatitude": -12.597134, "decimalLongitude": -69.176348, "eventDate": "2026-01-23T18:52:56", "taxonRank": "SPECIES", "kingdom": "Animalia", "phylum": "Chordata", "class": "Aves", "order": "Passeriformes", "family": "Tyrannidae", "genus": "Tyrannus", "species": "Tyrannus tyrannus", "recordedBy": "sanna_birding", "coordinateUncertaintyInMeters": 25.0, "source": "GBIF", "district": "TAMBOPATA" }, "geometry": { "type": "Point", "coordinates": [ -69.176348, -12.597134 ] } },
{ "type": "Feature", "properties": { "scientificName": "Sicalis flaveola (Linnaeus, 1766)", "decimalLatitude": -12.596795, "decimalLongitude": -69.176489, "eventDate": "2026-01-23T19:30:59", "taxonRank": "SPECIES", "kingdom": "Animalia", "phylum": "Chordata", "class": "Aves", "order": "Passeriformes", "family": "Thraupidae", "genus": "Sicalis", "species": "Sicalis flaveola", "recordedBy": "sanna_birding", "coordinateUncertaintyInMeters": 17.0, "source": "GBIF", "district": "TAMBOPATA" }, "geometry": { "type": "Point", "coordinates": [ -69.176489, -12.596795 ] } },
{ "type": "Feature", "properties": { "scientificName": "Stilpnia nigrocincta (Bonaparte, 1838)", "decimalLatitude": -12.836433, "decimalLongitude": -69.294637, "eventDate": "2026-01-13T17:33:27", "taxonRank": "SPECIES", "kingdom": "Animalia", "phylum": "Chordata", "class": "Aves", "order": "Passeriformes", "family": "Thraupidae", "genus": "Stilpnia", "species": "Stilpnia nigrocincta", "recordedBy": "sanna_birding", "coordinateUncertaintyInMeters": 52.0, "source": "GBIF", "district": "TAMBOPATA" }, "geometry": { "type": "Point", "coordinates": [ -69.294637, -12.836433 ] } },
{ "type": "Feature", "properties": { "scientificName": "Ardea cocoi Linnaeus, 1766", "decimalLatitude": -12.606746, "decimalLongitude": -69.079591, "eventDate": "2026-01-16T21:41:47", "taxonRank": "SPECIES", "kingdom": "Animalia", "phylum": "Chordata", "class": "Aves", "order": "Pelecaniformes", "family": "Ardeidae", "genus": "Ardea", "species": "Ardea cocoi", "recordedBy": "sanna_birding", "coordinateUncertaintyInMeters": 85.0, "source": "GBIF", "district": "TAMBOPATA" }, "geometry": { "type": "Point", "coordinates": [ -69.079591, -12.606746 ] } },
{ "type": "Feature", "properties": { "scientificName": "Ramphocelus carbo (Pallas, 1764)", "decimalLatitude": -12.835368, "decimalLongitude": -69.294134, "eventDate": "2026-01-10T23:53:42", "taxonRank": "SPECIES", "kingdom": "Animalia", "phylum": "Chordata", "class": "Aves", "order": "Passeriformes", "family": "Thraupidae", "genus": "Ramphocelus", "species": "Ramphocelus carbo", "recordedBy": "sanna_birding", "coordinateUncertaintyInMeters": 48.0, "source": "GBIF", "district": "TAMBOPATA" }, "geometry": { "type": "Point", "coordinates": [ -69.294134, -12.835368 ] } },
{ "type": "Feature", "properties": { "scientificName": "Monasa morphoeus (Hahn & Küster, 1823)", "decimalLatitude": -12.837029, "decimalLongitude": -69.28358, "eventDate": "2026-01-13T13:56:02", "taxonRank": "SPECIES", "kingdom": "Animalia", "phylum": "Chordata", "class": "Aves", "order": "Piciformes", "family": "Bucconidae", "genus": "Monasa", "species": "Monasa morphoeus", "recordedBy": "sanna_birding", "coordinateUncertaintyInMeters": 463.0, "source": "GBIF", "district": "TAMBOPATA" }, "geometry": { "type": "Point", "coordinates": [ -69.28358, -12.837029 ] } },
{ "type": "Feature", "properties": { "scientificName": "Capito auratus (Dumont, 1805)", "decimalLatitude": -12.837056, "decimalLongitude": -69.283679, "eventDate": "2026-01-13T15:16:17", "taxonRank": "SPECIES", "kingdom": "Animalia", "phylum": "Chordata", "class": "Aves", "order": "Piciformes", "family": "Capitonidae", "genus": "Capito", "species": "Capito auratus", "recordedBy": "sanna_birding", "coordinateUncertaintyInMeters": 217.0, "source": "GBIF", "district": "TAMBOPATA" }, "geometry": { "type": "Point", "coordinates": [ -69.283679, -12.837056 ] } },
{ "type": "Feature", "properties": { "scientificName": "Haetera piera (Linnaeus, 1758)", "decimalLatitude": -12.056583, "decimalLongitude": -69.542687, "eventDate": "2026-01-30T07:11:48", "taxonRank": "SPECIES", "kingdom": "Animalia", "phylum": "Arthropoda", "class": "Insecta", "order": "Lepidoptera", "family": "Nymphalidae", "genus": "Haetera", "species": "Haetera piera", "recordedBy": "jeffreyps", "coordinateUncertaintyInMeters": 1983044.0, "source": "GBIF", "district": "TAMBOPATA" }, "geometry": { "type": "Point", "coordinates": [ -69.542687, -12.056583 ] } },
{ "type": "Feature", "properties": { "scientificName": "Thraupis episcopus (Linnaeus, 1766)", "decimalLatitude": -12.836313, "decimalLongitude": -69.294595, "eventDate": "2026-01-10T23:32:57", "taxonRank": "SPECIES", "kingdom": "Animalia", "phylum": "Chordata", "class": "Aves", "order": "Passeriformes", "family": "Thraupidae", "genus": "Thraupis", "species": "Thraupis episcopus", "recordedBy": "sanna_birding", "coordinateUncertaintyInMeters": 141.0, "source": "GBIF", "district": "TAMBOPATA" }, "geometry": { "type": "Point", "coordinates": [ -69.294595, -12.836313 ] } },
{ "type": "Feature", "properties": { "scientificName": "Querula purpurata (Statius Muller, 1776)", "decimalLatitude": -12.836988, "decimalLongitude": -69.283762, "eventDate": "2026-01-13T14:11:16", "taxonRank": "SPECIES", "kingdom": "Animalia", "phylum": "Chordata", "class": "Aves", "order": "Passeriformes", "family": "Cotingidae", "genus": "Querula", "species": "Querula purpurata", "recordedBy": "sanna_birding", "coordinateUncertaintyInMeters": 88.0, "source": "GBIF", "district": "TAMBOPATA" }, "geometry": { "type": "Point", "coordinates": [ -69.283762, -12.836988 ] } },
{ "type": "Feature", "properties": { "scientificName": "Aramides cajanea (Statius Muller, 1776)", "decimalLatitude": -12.600777, "decimalLongitude": -69.049122, "eventDate": "2026-01-15T15:59:37", "taxonRank": "SPECIES", "kingdom": "Animalia", "phylum": "Chordata", "class": "Aves", "order": "Gruiformes", "family": "Rallidae", "genus": "Aramides", "species": "Aramides cajanea", "recordedBy": "sanna_birding", "coordinateUncertaintyInMeters": 463.0, "source": "GBIF", "district": "TAMBOPATA" }, "geometry": { "type": "Point", "coordinates": [ -69.049122, -12.600777 ] } },
{ "type": "Feature", "properties": { "scientificName": "Pionus menstruus (Linnaeus, 1766)", "decimalLatitude": -12.974104, "decimalLongitude": -69.33795, "eventDate": "2026-01-13T23:35:28", "taxonRank": "SPECIES", "kingdom": "Animalia", "phylum": "Chordata", "class": "Aves", "order": "Psittaciformes", "family": "Psittacidae", "genus": "Pionus", "species": "Pionus menstruus", "recordedBy": "sanna_birding", "coordinateUncertaintyInMeters": 31057.0, "source": "GBIF", "district": "TAMBOPATA" }, "geometry": { "type": "Point", "coordinates": [ -69.33795, -12.974104 ] } },
{ "type": "Feature", "properties": { "scientificName": "Rhinella marina", "decimalLatitude": -12.9269269189, "decimalLongitude": -69.4700773629, "eventDate": "2026-08-14", "taxonRank": null, "kingdom": "Animalia", "phylum": null, "class": null, "order": null, "family": null, "genus": null, "species": null, "recordedBy": "chrisz52", "coordinateUncertaintyInMeters": 61.0, "source": "iNaturalist", "district": "TAMBOPATA" }, "geometry": { "type": "Point", "coordinates": [ -69.4700773629, -12.9269269189 ] } },
{ "type": "Feature", "properties": { "scientificName": "Phoneutria fera", "decimalLatitude": -12.868685253400001, "decimalLongitude": -69.491007006100006, "eventDate": "2026-08-14", "taxonRank": null, "kingdom": "Animalia", "phylum": null, "class": null, "order": null, "family": null, "genus": null, "species": null, "recordedBy": "chrisz52", "coordinateUncertaintyInMeters": 61.0, "source": "iNaturalist", "district": "TAMBOPATA" }, "geometry": { "type": "Point", "coordinates": [ -69.491007006100006, -12.868685253400001 ] } },
{ "type": "Feature", "properties": { "scientificName": "Rhinella marina", "decimalLatitude": -12.8741078974, "decimalLongitude": -69.463967087300006, "eventDate": "2026-08-13", "taxonRank": null, "kingdom": "Animalia", "phylum": null, "class": null, "order": null, "family": null, "genus": null, "species": null, "recordedBy": "chrisz52", "coordinateUncertaintyInMeters": 61.0, "source": "iNaturalist", "district": "TAMBOPATA" }, "geometry": { "type": "Point", "coordinates": [ -69.463967087300006, -12.8741078974 ] } },
{ "type": "Feature", "properties": { "scientificName": "Leptodactylus didymus", "decimalLatitude": -12.981422693400001, "decimalLongitude": -69.476550079299997, "eventDate": "2026-08-12", "taxonRank": null, "kingdom": "Animalia", "phylum": null, "class": null, "order": null, "family": null, "genus": null, "species": null, "recordedBy": "chrisz52", "coordinateUncertaintyInMeters": 61.0, "source": "iNaturalist", "district": "TAMBOPATA" }, "geometry": { "type": "Point", "coordinates": [ -69.476550079299997, -12.981422693400001 ] } },
{ "type": "Feature", "properties": { "scientificName": "Paleosuchus trigonatus", "decimalLatitude": -11.972698877699999, "decimalLongitude": -70.5317195728, "eventDate": "2024-04-05", "taxonRank": null, "kingdom": "Animalia", "phylum": null, "class": null, "order": null, "family": null, "genus": null, "species": null, "recordedBy": "mariafvaz", "coordinateUncertaintyInMeters": 183486.0, "source": "iNaturalist", "district": "TAMBOPATA" }, "geometry": { "type": "Point", "coordinates": [ -70.5317195728, -11.972698877699999 ] } },
{ "type": "Feature", "properties": { "scientificName": "Opisthocomus hoazin", "decimalLatitude": -12.600780888199999, "decimalLongitude": -69.039948367500003, "eventDate": "2024-04-03", "taxonRank": null, "kingdom": "Animalia", "phylum": null, "class": null, "order": null, "family": null, "genus": null, "species": null, "recordedBy": "mariafvaz", "coordinateUncertaintyInMeters": 1095.0, "source": "iNaturalist", "district": "TAMBOPATA" }, "geometry": { "type": "Point", "coordinates": [ -69.039948367500003, -12.600780888199999 ] } },
{ "type": "Feature", "properties": { "scientificName": "Anhinga anhinga", "decimalLatitude": -12.6014566398, "decimalLongitude": -69.039841839700003, "eventDate": "2024-04-03", "taxonRank": null, "kingdom": "Animalia", "phylum": null, "class": null, "order": null, "family": null, "genus": null, "species": null, "recordedBy": "mariafvaz", "coordinateUncertaintyInMeters": 1095.0, "source": "iNaturalist", "district": "TAMBOPATA" }, "geometry": { "type": "Point", "coordinates": [ -69.039841839700003, -12.6014566398 ] } },
{ "type": "Feature", "properties": { "scientificName": "Saimiri boliviensis", "decimalLatitude": -12.6028341279, "decimalLongitude": -69.039948367500003, "eventDate": "2024-04-03", "taxonRank": null, "kingdom": "Animalia", "phylum": null, "class": null, "order": null, "family": null, "genus": null, "species": null, "recordedBy": "mariafvaz", "coordinateUncertaintyInMeters": 1095.0, "source": "iNaturalist", "district": "TAMBOPATA" }, "geometry": { "type": "Point", "coordinates": [ -69.039948367500003, -12.6028341279 ] } },
{ "type": "Feature", "properties": { "scientificName": "Pteronura brasiliensis", "decimalLatitude": -12.708166973799999, "decimalLongitude": -69.166850158399996, "eventDate": "2024-04-03", "taxonRank": null, "kingdom": "Animalia", "phylum": null, "class": null, "order": null, "family": null, "genus": null, "species": null, "recordedBy": "mariafvaz", "coordinateUncertaintyInMeters": 1335.0, "source": "iNaturalist", "district": "TAMBOPATA" }, "geometry": { "type": "Point", "coordinates": [ -69.166850158399996, -12.708166973799999 ] } },
{ "type": "Feature", "properties": { "scientificName": "Hydrochoerus hydrochaeris", "decimalLatitude": -12.8990335397, "decimalLongitude": -69.464063223300002, "eventDate": "2026-08-13", "taxonRank": null, "kingdom": "Animalia", "phylum": null, "class": null, "order": null, "family": null, "genus": null, "species": null, "recordedBy": "megan58322", "coordinateUncertaintyInMeters": 11650.0, "source": "iNaturalist", "district": "TAMBOPATA" }, "geometry": { "type": "Point", "coordinates": [ -69.464063223300002, -12.8990335397 ] } },
{ "type": "Feature", "properties": { "scientificName": "Brotogeris cyanoptera", "decimalLatitude": -12.670958992399999, "decimalLongitude": -69.362432186800007, "eventDate": "2026-07-18", "taxonRank": null, "kingdom": "Animalia", "phylum": null, "class": null, "order": null, "family": null, "genus": null, "species": null, "recordedBy": "dbeeke", "coordinateUncertaintyInMeters": 488.0, "source": "iNaturalist", "district": "TAMBOPATA" }, "geometry": { "type": "Point", "coordinates": [ -69.362432186800007, -12.670958992399999 ] } },
{ "type": "Feature", "properties": { "scientificName": "Coelomera cajennensis", "decimalLatitude": -12.591971666699999, "decimalLongitude": -69.177253333300001, "eventDate": "2026-07-19", "taxonRank": null, "kingdom": "Animalia", "phylum": null, "class": null, "order": null, "family": null, "genus": null, "species": null, "recordedBy": "thaliavillana", "coordinateUncertaintyInMeters": 9.0, "source": "iNaturalist", "district": "TAMBOPATA" }, "geometry": { "type": "Point", "coordinates": [ -69.177253333300001, -12.591971666699999 ] } },
{ "type": "Feature", "properties": { "scientificName": "Todirostrum maculatum", "decimalLatitude": -12.59752, "decimalLongitude": -69.1912, "eventDate": "2026-07-27", "taxonRank": null, "kingdom": "Animalia", "phylum": null, "class": null, "order": null, "family": null, "genus": null, "species": null, "recordedBy": "thaliavillana", "coordinateUncertaintyInMeters": 10.0, "source": "iNaturalist", "district": "TAMBOPATA" }, "geometry": { "type": "Point", "coordinates": [ -69.1912, -12.59752 ] } },
{ "type": "Feature", "properties": { "scientificName": "Siphonops annulatus", "decimalLatitude": -12.62745, "decimalLongitude": -69.187783333300004, "eventDate": "2026-08-09", "taxonRank": null, "kingdom": "Animalia", "phylum": null, "class": null, "order": null, "family": null, "genus": null, "species": null, "recordedBy": "thaliavillana", "coordinateUncertaintyInMeters": 16.0, "source": "iNaturalist", "district": "TAMBOPATA" }, "geometry": { "type": "Point", "coordinates": [ -69.187783333300004, -12.62745 ] } },
{ "type": "Feature", "properties": { "scientificName": "Macromantis hyalina", "decimalLatitude": -12.8577951163, "decimalLongitude": -69.479060992499996, "eventDate": "2025-08-08", "taxonRank": null, "kingdom": "Animalia", "phylum": null, "class": null, "order": null, "family": null, "genus": null, "species": null, "recordedBy": "lukeyinthewild", "coordinateUncertaintyInMeters": null, "source": "iNaturalist", "district": "TAMBOPATA" }, "geometry": { "type": "Point", "coordinates": [ -69.479060992499996, -12.8577951163 ] } },
{ "type": "Feature", "properties": { "scientificName": "Panacea prola", "decimalLatitude": -12.59372, "decimalLongitude": -69.179991666700005, "eventDate": "2026-08-04", "taxonRank": null, "kingdom": "Animalia", "phylum": null, "class": null, "order": null, "family": null, "genus": null, "species": null, "recordedBy": "valentina58296", "coordinateUncertaintyInMeters": 11.0, "source": "iNaturalist", "district": "TAMBOPATA" }, "geometry": { "type": "Point", "coordinates": [ -69.179991666700005, -12.59372 ] } },
{ "type": "Feature", "properties": { "scientificName": "Hydrochoerus hydrochaeris", "decimalLatitude": -12.787016573500001, "decimalLongitude": -69.279344359700005, "eventDate": "2024-04-05", "taxonRank": null, "kingdom": "Animalia", "phylum": null, "class": null, "order": null, "family": null, "genus": null, "species": null, "recordedBy": "boenci", "coordinateUncertaintyInMeters": 42.0, "source": "iNaturalist", "district": "TAMBOPATA" }, "geometry": { "type": "Point", "coordinates": [ -69.279344359700005, -12.787016573500001 ] } }
]
}
